ORBCOMM FM33            
1 25983U 99065D   25151.16458397  .00000906  00000+0  33009-3 0  9995
2 25983  45.0289  79.8856 0009927 336.0604  23.9782 14.39966499333683
ORBCOMM FM36            
1 25984U 99065E   25151.31568779  .00000783  00000+0  30277-3 0  9996
2 25984  45.0375 170.8467 0004884 244.1339 115.9007 14.38085261332589
ORBCOMM FM35            
1 25985U 99065F   25151.42236290  .00000689  00000+0  27761-3 0  9998
2 25985  45.0378 175.2425 0005704 296.2943  63.7319 14.37061036332564
ORBCOMM FM34            
1 25986U 99065G   25151.18010446  .00000566  00000+0  23615-3 0  9993
2 25986  45.0374 176.8612 0006200 263.6416  96.3726 14.37088278332494
ORBCOMM FM38            
1 33060U 08031A   25150.94403801  .00001704  00000+0  24356-3 0  9990
2 33060  48.4421  37.4172 0005161 322.3401  37.7152 14.81259998912192
ORBCOMM FM41            
1 33061U 08031B   25151.17601269  .00001680  00000+0  24279-3 0  9992
2 33061  48.4456  44.0319 0004466 308.1959 217.9504 14.80847144912159
ORBCOMM FM29            
1 33062U 08031C   25151.15915330  .00001868  00000+0  26621-3 0  9999
2 33062  48.4397  51.9425 0006204 308.2726 205.6471 14.80947044912016
ORBCOMM FM39            
1 33063U 08031D   25151.48214092  .00001526  00000+0  22995-3 0  9994
2 33063  48.4414  74.4932 0007230 283.9947  76.0164 14.79508622911745
